PAKSAT-MM1              
1 59915U 24104A   26170.96614214  .00000148  00000+0  00000+0 0  9990
2 59915   0.0325  88.0434 0002459 347.0422 219.0963  1.00266668  7552
ASTRA 1P (SES-24)       
1 60086U 24115A   26170.84211356  .00000115  00000+0  00000+0 0  9994
2 60086   0.0580 357.1167 0000651  25.1211 208.1930  1.00275004  7222
GOES 19                 
1 60133U 24119A   26171.37127980 -.00000253  00000+0  00000+0 0  9993
2 60133   0.0015 112.2371 0000407  49.5773 165.2311  1.00270517  6990
ZHONGXING-3A            
1 60179U 24122A   26171.59014024 -.00000318  00000+0  00000+0 0  9997
2 60179   0.0402 113.7747 0001215   9.0664  99.9844  1.00272426  7346
TURKSAT 6A              
1 60233U 24127A   26171.18640370  .00000000  00000+0  00000+0 0  9994
2 60233   0.0134 188.2343 0001706 301.1136 248.1457  1.00271169  7041
HULIANWAN GAOGUI-02 (H*)
1 60327U 24135A   26171.55639622 -.00000178  00000+0  00000+0 0  9993
2 60327   0.0432 354.2481 0007383  13.9786 253.9739  1.00269765  7530
ZHONGXING-4A            
1 60606U 24151A   26171.41533874 -.00000367  00000+0  00000+0 0  9998
2 60606   1.3048 270.7935 0000152 182.6537  82.9304  1.00272227  6789
HULIANWAN GAOGUI-03 (H*)
1 61503U 24181A   26170.87770185 -.00000246  00000+0  00000+0 0  9991
2 61503   0.0459 358.3743 0001138  95.3158  53.2376  1.00270259  6853
DSN-3 (KIRAMEKI-3)      
1 61733U 24198A   26171.46066924 -.00000255  00000+0  00000+0 0  9999
2 61733   0.0267 281.4287 0000609 189.8925 107.2456  1.00270761  5954
KOREASAT 6A             
1 61910U 24206A   26170.77339228 -.00000367  00000+0  00000+0 0  9993
2 61910   0.0257  97.0850 0000818 327.3804 237.9476  1.00269362  5862
OPTUS-X (ADS-01)        
1 62006U 24212A   26171.35170538 -.00000148  00000+0  00000+0 0  9996
2 62006   0.0108 311.5369 0001878 178.3382  61.6776  1.00271869  5797
GSAT-N2 (GSAT-20)       
1 62028U 24214A   26171.40537204 -.00000023  00000+0  00000+0 0  9997
2 62028   0.0463 108.9199 0001953 329.6343  43.9353  1.00270647  5939
SXM-9                   
1 62259U 24234A   26170.80467911 -.00000211  00000+0  00000+0 0  9994
2 62259   0.0121 345.5677 0005044 330.3730 156.5984  1.00271752  5603
TJS-12                  
1 62374U 24246A   26172.52477568 -.00000233  00000+0  00000+0 0  9999
2 62374   0.6599 299.6190 0002083  86.9315 218.5932  1.00268929  5602
NUVIEW ALPHA            
1 62455U 24252B   26171.37551706 -.00000220  00000+0  00000+0 0  9991
2 62455   0.0544  34.8592 0001109  31.8120 254.0224  1.00268481  3859
AGILA                   
1 62456U 24252C   26171.46727757 -.00000186  00000+0  00000+0 0  9994
2 62456   0.0639 122.9722 0001257 336.9984 129.0807  1.00271197  5195
NUVIEW BRAVO            
1 62457U 24252D   26171.37551706 -.00000219  00000+0  00000+0 0  9991
2 62457   0.0743 146.5525 0002084 337.9215 196.1742  1.00271802  3826
THURAYA-4               
1 62483U 25001A   26170.89350227  .00000134  00000+0  00000+0 0  9999
2 62483   0.0260  67.3649 0000129 235.0170 331.6905  1.00272730  4203
SHIJIAN-25 (SJ-25)      
1 62485U 25002A   26171.44912980 -.00000357  00000+0  00000+0 0  9992
2 62485   5.1219  61.1498 0052012 173.4030 322.9628  1.00261664  5397
TJS-14                  
1 62804U 25017A   26172.53628539  .00000115  00000+0  00000+0 0  9999
2 62804   0.7716 295.9577 0000830 276.0073 269.2860  1.00276757  5310
SPAINSAT NG I           
1 62852U 25021A   26171.03045817  .00000146  00000+0  00000+0 0  9997
2 62852   0.0178   1.7789 0000223 177.4851 128.9379  1.00271397  4017
QZS-6 (MICHIBIKI-6)     
1 62876U 25023A   26171.40996537 -.00000237  00000+0  00000+0 0  9992
2 62876   0.0614  73.8005 0001896  19.1523  53.7613  1.00270060  4982
ZHONGXING-10R           
1 63075U 25036A   26171.41386541 -.00000356  00000+0  00000+0 0  9999
2 63075   0.0045 296.2419 0003589 202.1815  29.7251  1.00270500  4992
TJS-15                  
1 63157U 25045A   26171.33939558 -.00000269  00000+0  00000+0 0  9996
2 63157   0.2944  85.4731 0004649 299.0125 100.6355  1.00270564  4797
TIANLIAN 2-04           
1 63361U 25062A   26172.40589769 -.00000136  00000+0  00000+0 0  9999
2 63361   4.3626 274.3783 0031483  10.3849 211.0218  1.00272079  4647
TJS-16                  
1 63397U 25064A   26171.46202840 -.00000110  00000+0  00000+0 0  9999
2 63397   1.1077  81.4457 0003312 292.6528 221.5121  1.00271697  4425
TJS-17                  
1 63524U 25073A   26171.49140550 -.00000074  00000+0  00000+0 0  9992
2 63524   1.0737  82.6749 0002059 302.0289 225.4498  1.00272670  4324
TIANLIAN 2-05           
1 63662U 25084A   26172.53663207  .00000123  00000+0  00000+0 0  9996
2 63662   4.4391 279.7867 0003257 150.3286  53.1495  1.00273080  4422
TJS-19                  
1 63924U 25097A   26171.49180730 -.00000281  00000+0  00000+0 0  9996
2 63924   3.2800 317.5119 0002894 246.8383  22.5951  1.00275639  4172
